ONEWEB-0678             
1 56714U 23068E   23263.91667824  .00047104  00000+0  10225+0 0  9995
2 56714  87.9463  98.2285 0003146 153.5715 227.0263 13.28758964  5423
ONEWEB-0679             
1 56715U 23068F   23264.04472375  .00001818  00000+0  24507-3 0  9990
2 56715  86.7177  89.7472 0016460 143.7204 216.5136 14.78504504 19098
ONEWEB-0680             
1 56716U 23068G   23263.91667824 -.00941583  00000+0 -14605+0 0  9999
2 56716  86.7323  89.7964 0015392 149.1086  91.3374 14.76220924  5748
ONEWEB-0681             
1 56717U 23068H   23263.91667824 -.00980921  00000+0 -16129+0 0  9992
2 56717  86.7449  89.8463 0013422 147.0470 265.8174 14.73882363  5732
ONEWEB-0682             
1 56718U 23068J   23263.91667824  .00028004  00000+0  60970-1 0  9991
2 56718  87.9442  97.6981 0010490 175.4295 176.6102 13.28672115  5509
ONEWEB-0683             
1 56719U 23068K   23263.91667824  .00034238  00000+0  74770-1 0  9991
2 56719  87.9492  97.6527 0009731 174.7607 256.8840 13.28433108  5457
ONEWEB-0684             
1 56720U 23068L   23263.97278864 -.00008164  00000+0 -17844-1 0  9991
2 56720  87.9220  98.6421 0003278  75.0892 285.0609 13.28837016 18436
ONEWEB-0686             
1 56721U 23068M   23264.06657729 -.00004492  00000+0 -62360-3 0  9999
2 56721  86.7152  89.7170 0015503 145.4951 214.7279 14.78185398 19092
